*******************************************************************************
JPL/HORIZONS                884 Priamus (A917 SU)          2023-Sep-04 11:08:56
Rec #:     884 (+COV) Soln.date: 2023-Aug-24_23:04:32   # obs: 4148 (1917-2023)
 
IAU76/J2000 helio. ecliptic osc. elements (au, days, deg., period=Julian yrs):
 
  EPOCH=  2457524.5 ! 2016-May-16.00 (TDB)         Residual RMS= .24709
   EC= .1215028877363419   QR= 4.552538095258734   TP= 2459427.0027578892
   OM= 301.557770336491    W=  335.6710289397941   IN= 8.913758335151501
   A= 5.182189026811972    MA= 201.0503802363945   ADIST= 5.81183995836521
   PER= 11.79718           N= .08354764200000001   ANGMOM= .038869453
   DAN= 4.59676            DDN= 5.74132            L= 277.4890929
   B= -3.6599398           MOID= 3.53873992        TP= 2021-Jul-31.5027578892
 
Asteroid physical parameters (km, seconds, rotational period in hours):
   GM= n.a.                RAD= 50.5465            ROTPER= 6.8605
   H= 8.71                 G= .150                 B-V= .718
                           ALBEDO= .044            STYP= D

ASTEROID comments: 
1: soln ref.= JPL#57, OCC=0
2: source=ORB
*******************************************************************************


*******************************************************************************
Ephemeris / API_USER Mon Sep  4 11:08:57 2023 Pasadena, USA      / Horizons
*******************************************************************************
Target body name: 884 Priamus (A917 SU)           {source: JPL#57}
Center body name: Solar System Barycenter (0)     {source: DE441}
Center-site name: BODY CENTER
*******************************************************************************
Start time      : A.D. 2023-Aug-12 00:00:00.0000 TDB
Stop  time      : A.D. 2023-Aug-13 00:00:00.0000 TDB
Step-size       : 2880 minutes
*******************************************************************************
Center geodetic : 0.0, 0.0, 0.0                   {E-lon(deg),Lat(deg),Alt(km)}
Center cylindric: 0.0, 0.0, 0.0                   {E-lon(deg),Dxy(km),Dz(km)}
Center radii    : (undefined)
Small perturbers: Yes                             {source: SB441-N16}
Output units    : KM-S
Calendar mode   : Mixed Julian/Gregorian
Output type     : GEOMETRIC cartesian states
Output format   : 2 (position and velocity)
Reference frame : Ecliptic of J2000.0
*******************************************************************************
Initial IAU76/J2000 heliocentric ecliptic osculating elements (au, days, deg.):
  EPOCH=  2457524.5 ! 2016-May-16.00 (TDB)         Residual RMS= .24709        
   EC= .1215028877363419   QR= 4.552538095258734   TP= 2459427.0027578892      
   OM= 301.557770336491    W=  335.6710289397941   IN= 8.913758335151501       
  Equivalent ICRF heliocentric cartesian coordinates (au, au/d):
   X=-2.349435256136049E+00  Y= 4.794747401659972E+00  Z= 2.208719929400437E+00
  VX=-5.973269618882290E-03 VY=-2.271692707135289E-03 VZ=-2.116811883788245E-03
Asteroid physical parameters (km, seconds, rotational period in hours):        
   GM= n.a.                RAD= 50.5465            ROTPER= 6.8605              
   H= 8.71                 G= .150                 B-V= .718                   
                           ALBEDO= .044            STYP= D                     
*******************************************************************************
JDTDB
   X     Y     Z
   VX    VY    VZ
*******************************************************************************
$$SOE
2460168.500000000 = A.D. 2023-Aug-12 00:00:00.0000 TDB 
 X = 7.280480547529033E+08 Y =-9.646515456550220E+07 Z = 8.950773578248438E+07
 VX= 3.183246705770469E+00 VY= 1.322522329258582E+01 VZ= 1.507975103136589E+00
$$EOE
*******************************************************************************
 
TIME

  Barycentric Dynamical Time ("TDB" or T_eph) output was requested. This
continuous coordinate time is equivalent to the relativistic proper time
of a clock at rest in a reference frame co-moving with the solar system
barycenter but outside the system's gravity well. It is the independent
variable in the solar system relativistic equations of motion.

  TDB runs at a uniform rate of one SI second per second and is independent
of irregularities in Earth's rotation.
 
CALENDAR SYSTEM

  Mixed calendar mode was active such that calendar dates after AD 1582-Oct-15
(if any) are in the modern Gregorian system. Dates prior to 1582-Oct-5 (if any)
are in the Julian calendar system, which is automatically extended for dates
prior to its adoption on 45-Jan-1 BC.  The Julian calendar is useful for
matching historical dates. The Gregorian calendar more accurately corresponds
to the Earth's orbital motion and seasons. A "Gregorian-only" calendar mode is
available if such physical events are the primary interest.

REFERENCE FRAME AND COORDINATES

  Ecliptic at the standard reference epoch

    Reference epoch: J2000.0
    X-Y plane: adopted Earth orbital plane at the reference epoch
               Note: IAU76 obliquity of 84381.448 arcseconds wrt ICRF X-Y plane
    X-axis   : ICRF
    Z-axis   : perpendicular to the X-Y plane in the directional (+ or -) sense
               of Earth's north pole at the reference epoch.

  Symbol meaning:

    JDTDB    Julian Day Number, Barycentric Dynamical Time
      X      X-component of position vector (km)
      Y      Y-component of position vector (km)
      Z      Z-component of position vector (km)
      VX     X-component of velocity vector (km/sec)                           
      VY     Y-component of velocity vector (km/sec)                           
      VZ     Z-component of velocity vector (km/sec)                           

ABERRATIONS AND CORRECTIONS

 Geometric state vectors have NO corrections or aberrations applied.

Computations by ...

    Solar System Dynamics Group, Horizons On-Line Ephemeris System
    4800 Oak Grove Drive, Jet Propulsion Laboratory
    Pasadena, CA  91109   USA

    General site: https://ssd.jpl.nasa.gov/
    Mailing list: https://ssd.jpl.nasa.gov/email_list.html
    System news : https://ssd.jpl.nasa.gov/horizons/news.html
    User Guide  : https://ssd.jpl.nasa.gov/horizons/manual.html
    Connect     : browser        https://ssd.jpl.nasa.gov/horizons/app.html#/x
                  API            https://ssd-api.jpl.nasa.gov/doc/horizons.html
                  command-line   telnet ssd.jpl.nasa.gov 6775
                  e-mail/batch   https://ssd.jpl.nasa.gov/ftp/ssd/hrzn_batch.txt
                  scripts        https://ssd.jpl.nasa.gov/ftp/ssd/SCRIPTS
    Author      : Jon.D.Giorgini@jpl.nasa.gov
*******************************************************************************
